[{"OBJECT_NAME":"STARLINK-34516","OBJECT_ID":"2025-137M","EPOCH":"2026-03-09T22:01:06.852288","MEAN_MOTION":15.30227626,"ECCENTRICITY":9.217e-5,"INCLINATION":53.1592,"RA_OF_ASC_NODE":333.9073,"ARG_OF_PERICENTER":67.6959,"MEAN_ANOMALY":292.414,"EPHEMERIS_TYPE":0,"CLASSIFICATION_TYPE":"U","NORAD_CAT_ID":64605,"ELEMENT_SET_NO":999,"REV_AT_EPOCH":4087,"BSTAR":0.00082382534,"MEAN_MOTION_DOT":0.0002414,"MEAN_MOTION_DDOT":0},{"OBJECT_NAME":"OBJECT L","OBJECT_ID":"2024-024L","EPOCH":"2026-03-09T22:36:05.522976","MEAN_MOTION":15.29373491,"ECCENTRICITY":0.00073185,"INCLINATION":97.3169,"RA_OF_ASC_NODE":137.7038,"ARG_OF_PERICENTER":167.6369,"MEAN_ANOMALY":192.5052,"EPHEMERIS_TYPE":0,"CLASSIFICATION_TYPE":"U","NORAD_CAT_ID":58927,"ELEMENT_SET_NO":999,"REV_AT_EPOCH":9318,"BSTAR":0.00043092344,"MEAN_MOTION_DOT":0.00012217,"MEAN_MOTION_DDOT":0}]
